*******************************************************************************
Ephemeris / WWW_USER Tue Mar 11 05:43:23 2025 Pasadena, USA      / Horizons    
*******************************************************************************
Target body name: Hale-Bopp (C/1995 O1)           {source: JPL#226}
Center body name: Earth (399)                     {source: DE441}
Center-site name: Gemini South Obs., Cerro Pachon
*******************************************************************************
Start time      : A.D. 2018-Aug-14 22:26:00.0000 UT      
Stop  time      : A.D. 2018-Aug-15 11:08:00.0000 UT      
Step-size       : 1 minutes
*******************************************************************************
Target pole/equ : undefined
Target radii    : 30. km                                                       
Center geodetic : 289.2634, -30.2406227, 2.71233  {E-lon(deg),Lat(deg),Alt(km)}
Center cylindric: 289.2634,5517.21435,-3194.81213 {E-lon(deg),Dxy(km),Dz(km)}
Center pole/equ : ITRF93                          {East-longitude positive}
Center radii    : 6378.137, 6378.137, 6356.752 km {Equator_a, b, pole_c}       
Target primary  : Sun
Vis. interferer : MOON (R_eq= 1737.400) km        {source: DE441}
Rel. light bend : Sun                             {source: DE441}
Rel. lght bnd GM: 1.3271E+11 km^3/s^2                                          
Small-body perts: Yes                             {source: SB441-N16}
Atmos refraction: NO (AIRLESS)
RA format       : HMS
Time format     : CAL 
Calendar mode   : Mixed Julian/Gregorian
RTS-only print  : NO       
EOP file        : eop.250310.p250606                                           
EOP coverage    : DATA-BASED 1962-JAN-20 TO 2025-MAR-10. PREDICTS-> 2025-JUN-05
Units conversion: 1 au= 149597870.700 km, c= 299792.458 km/s, 1 day= 86400.0 s 
Table cut-offs 1: Elevation (-90.0deg=NO ),Airmass (>38.000=NO), Daylight (YES)
Table cut-offs 2: Solar elongation (  0.0,180.0=NO ),Local Hour Angle( 0.0=NO )
Table cut-offs 3: RA/DEC angular rate (     0.0=NO )                           
*******************************************************************************
Initial IAU76/J2000 heliocentric ecliptic osculating elements (au, days, deg.):
  EPOCH=  2459837.5 ! 2022-Sep-15.0000000 (TDB)    RMSW= n.a.                  
   EC= .9949810027633206   QR= .890537663547794    TP= 2450537.1349071441      
   OM= 282.7334213961641   W= 130.4146670659176    IN= 89.28759424740302       
  Equivalent ICRF heliocentric cartesian coordinates (au, au/d):
   X= 3.907631452214869E+00  Y=-1.373895334060347E+00  Z=-4.624358508575312E+01
  VX= 3.778244409519935E-04 VY=-5.803173067116371E-04 VZ=-3.255716412104052E-03
Comet physical (GM= km^3/s^2; RAD= km):                                        
   GM= n.a.                RAD= 30.                                            
   M1=  4.8      M2=  n.a.     k1=  4.     k2= n.a.     PHCOF= n.a.            
*******************************************************************************
 Date__(UT)__HR:MN     R.A._________(ICRF)_________DEC
******************************************************
$$SOE
 2018-Aug-15 00:30  m  00 06 55.194435 -86 28 21.88123
 2018-Aug-15 00:31  m  00 06 55.146737 -86 28 21.91985
 2018-Aug-15 00:32  m  00 06 55.099035 -86 28 21.95848
 2018-Aug-15 00:33  m  00 06 55.051328 -86 28 21.99711
 2018-Aug-15 00:34  m  00 06 55.003617 -86 28 22.03573
 2018-Aug-15 00:35  m  00 06 54.955901 -86 28 22.07436
 2018-Aug-15 00:36  m  00 06 54.908180 -86 28 22.11298
 2018-Aug-15 00:37  m  00 06 54.860456 -86 28 22.15161
 2018-Aug-15 00:38  m  00 06 54.812726 -86 28 22.19024
 2018-Aug-15 00:39  m  00 06 54.764992 -86 28 22.22886
 2018-Aug-15 00:40  m  00 06 54.717254 -86 28 22.26749
 2018-Aug-15 00:41  m  00 06 54.669511 -86 28 22.30611
 2018-Aug-15 00:42  m  00 06 54.621764 -86 28 22.34474
 2018-Aug-15 00:43  m  00 06 54.574012 -86 28 22.38336
 2018-Aug-15 00:44  m  00 06 54.526255 -86 28 22.42199
 2018-Aug-15 00:45  m  00 06 54.478494 -86 28 22.46061
 2018-Aug-15 00:46  m  00 06 54.430729 -86 28 22.49924
 2018-Aug-15 00:47  m  00 06 54.382959 -86 28 22.53786
 2018-Aug-15 00:48  m  00 06 54.335184 -86 28 22.57649
 2018-Aug-15 00:49  m  00 06 54.287405 -86 28 22.61511
 2018-Aug-15 00:50  m  00 06 54.239622 -86 28 22.65374
 2018-Aug-15 00:51  m  00 06 54.191833 -86 28 22.69236
 2018-Aug-15 00:52  m  00 06 54.144041 -86 28 22.73098
 2018-Aug-15 00:53  m  00 06 54.096243 -86 28 22.76961
 2018-Aug-15 00:54  m  00 06 54.048442 -86 28 22.80823
 2018-Aug-15 00:55  m  00 06 54.000635 -86 28 22.84685
 2018-Aug-15 00:56  m  00 06 53.952824 -86 28 22.88547
 2018-Aug-15 00:57  m  00 06 53.905009 -86 28 22.92409
 2018-Aug-15 00:58  m  00 06 53.857189 -86 28 22.96272
 2018-Aug-15 00:59  m  00 06 53.809364 -86 28 23.00134
 2018-Aug-15 01:00  m  00 06 53.761535 -86 28 23.03996
 2018-Aug-15 01:01  m  00 06 53.713702 -86 28 23.07858
 2018-Aug-15 01:02  m  00 06 53.665863 -86 28 23.11720
 2018-Aug-15 01:03  m  00 06 53.618020 -86 28 23.15582
 2018-Aug-15 01:04  m  00 06 53.570173 -86 28 23.19443
 2018-Aug-15 01:05  m  00 06 53.522321 -86 28 23.23305
 2018-Aug-15 01:06  m  00 06 53.474465 -86 28 23.27167
 2018-Aug-15 01:07  m  00 06 53.426604 -86 28 23.31029
 2018-Aug-15 01:08  m  00 06 53.378738 -86 28 23.34890
 2018-Aug-15 01:09  m  00 06 53.330868 -86 28 23.38752
 2018-Aug-15 01:10  m  00 06 53.282993 -86 28 23.42614
 2018-Aug-15 01:11  m  00 06 53.235114 -86 28 23.46475
 2018-Aug-15 01:12  m  00 06 53.187230 -86 28 23.50336
 2018-Aug-15 01:13  m  00 06 53.139342 -86 28 23.54198
 2018-Aug-15 01:14  m  00 06 53.091449 -86 28 23.58059
 2018-Aug-15 01:15  m  00 06 53.043551 -86 28 23.61920
 2018-Aug-15 01:16  m  00 06 52.995649 -86 28 23.65782
 2018-Aug-15 01:17  m  00 06 52.947742 -86 28 23.69643
 2018-Aug-15 01:18  m  00 06 52.899831 -86 28 23.73504
 2018-Aug-15 01:19  m  00 06 52.851915 -86 28 23.77365
 2018-Aug-15 01:20  m  00 06 52.803995 -86 28 23.81226
 2018-Aug-15 01:21  m  00 06 52.756070 -86 28 23.85086
 2018-Aug-15 01:22  m  00 06 52.708140 -86 28 23.88947
 2018-Aug-15 01:23  m  00 06 52.660206 -86 28 23.92808
 2018-Aug-15 01:24  m  00 06 52.612267 -86 28 23.96668
 2018-Aug-15 01:25  m  00 06 52.564324 -86 28 24.00529
 2018-Aug-15 01:26  m  00 06 52.516376 -86 28 24.04389
 2018-Aug-15 01:27  m  00 06 52.468424 -86 28 24.08250
 2018-Aug-15 01:28  m  00 06 52.420467 -86 28 24.12110
 2018-Aug-15 01:29  m  00 06 52.372506 -86 28 24.15970
 2018-Aug-15 01:30  m  00 06 52.324540 -86 28 24.19830
 2018-Aug-15 01:31  m  00 06 52.276569 -86 28 24.23690
 2018-Aug-15 01:32  m  00 06 52.228594 -86 28 24.27550
 2018-Aug-15 01:33  m  00 06 52.180614 -86 28 24.31410
 2018-Aug-15 01:34  m  00 06 52.132630 -86 28 24.35270
 2018-Aug-15 01:35  m  00 06 52.084641 -86 28 24.39129
 2018-Aug-15 01:36  m  00 06 52.036647 -86 28 24.42989
 2018-Aug-15 01:37  m  00 06 51.988649 -86 28 24.46848
 2018-Aug-15 01:38  m  00 06 51.940647 -86 28 24.50707
 2018-Aug-15 01:39  m  00 06 51.892640 -86 28 24.54567
 2018-Aug-15 01:40  m  00 06 51.844628 -86 28 24.58426
 2018-Aug-15 01:41  m  00 06 51.796612 -86 28 24.62285
 2018-Aug-15 01:42  m  00 06 51.748591 -86 28 24.66144
 2018-Aug-15 01:43  m  00 06 51.700566 -86 28 24.70002
 2018-Aug-15 01:44  m  00 06 51.652536 -86 28 24.73861
 2018-Aug-15 01:45  m  00 06 51.604502 -86 28 24.77720
 2018-Aug-15 01:46  m  00 06 51.556463 -86 28 24.81578
 2018-Aug-15 01:47  m  00 06 51.508420 -86 28 24.85437
 2018-Aug-15 01:48  m  00 06 51.460372 -86 28 24.89295
 2018-Aug-15 01:49  m  00 06 51.412319 -86 28 24.93153
 2018-Aug-15 01:50  m  00 06 51.364262 -86 28 24.97011
 2018-Aug-15 01:51  m  00 06 51.316200 -86 28 25.00869
 2018-Aug-15 01:52  m  00 06 51.268134 -86 28 25.04726
 2018-Aug-15 01:53  m  00 06 51.220064 -86 28 25.08584
 2018-Aug-15 01:54  m  00 06 51.171989 -86 28 25.12442
 2018-Aug-15 01:55  m  00 06 51.123909 -86 28 25.16299
 2018-Aug-15 01:56  m  00 06 51.075825 -86 28 25.20156
 2018-Aug-15 01:57  m  00 06 51.027736 -86 28 25.24013
 2018-Aug-15 01:58  m  00 06 50.979643 -86 28 25.27870
 2018-Aug-15 01:59  m  00 06 50.931545 -86 28 25.31727
 2018-Aug-15 02:00  m  00 06 50.883443 -86 28 25.35584
 2018-Aug-15 02:01  m  00 06 50.835336 -86 28 25.39441
 2018-Aug-15 02:02  m  00 06 50.787225 -86 28 25.43297
 2018-Aug-15 02:03  m  00 06 50.739109 -86 28 25.47153
 2018-Aug-15 02:04  m  00 06 50.690989 -86 28 25.51009
 2018-Aug-15 02:05  m  00 06 50.642865 -86 28 25.54866
 2018-Aug-15 02:06  m  00 06 50.594735 -86 28 25.58721
 2018-Aug-15 02:07  m  00 06 50.546602 -86 28 25.62577
 2018-Aug-15 02:08  m  00 06 50.498464 -86 28 25.66433
 2018-Aug-15 02:09  m  00 06 50.450321 -86 28 25.70288
 2018-Aug-15 02:10  m  00 06 50.402174 -86 28 25.74143
 2018-Aug-15 02:11     00 06 50.354022 -86 28 25.77999
 2018-Aug-15 02:12     00 06 50.305866 -86 28 25.81854
 2018-Aug-15 02:13     00 06 50.257706 -86 28 25.85708
 2018-Aug-15 02:14     00 06 50.209541 -86 28 25.89563
 2018-Aug-15 02:15     00 06 50.161372 -86 28 25.93418
 2018-Aug-15 02:16     00 06 50.113198 -86 28 25.97272
 2018-Aug-15 02:17     00 06 50.065020 -86 28 26.01126
 2018-Aug-15 02:18     00 06 50.016837 -86 28 26.04980
 2018-Aug-15 02:19     00 06 49.968650 -86 28 26.08834
 2018-Aug-15 02:20     00 06 49.920458 -86 28 26.12688
 2018-Aug-15 02:21     00 06 49.872262 -86 28 26.16541
 2018-Aug-15 02:22     00 06 49.824062 -86 28 26.20395
 2018-Aug-15 02:23     00 06 49.775857 -86 28 26.24248
 2018-Aug-15 02:24     00 06 49.727648 -86 28 26.28101
 2018-Aug-15 02:25     00 06 49.679434 -86 28 26.31954
 2018-Aug-15 02:26     00 06 49.631216 -86 28 26.35807
 2018-Aug-15 02:27     00 06 49.582994 -86 28 26.39659
 2018-Aug-15 02:28     00 06 49.534767 -86 28 26.43512
 2018-Aug-15 02:29     00 06 49.486536 -86 28 26.47364
 2018-Aug-15 02:30     00 06 49.438300 -86 28 26.51216
 2018-Aug-15 02:31     00 06 49.390060 -86 28 26.55068
 2018-Aug-15 02:32     00 06 49.341816 -86 28 26.58919
 2018-Aug-15 02:33     00 06 49.293567 -86 28 26.62771
